CZ-2C R/B               
1 54039U 22132E   25356.58027270  .00030494  00000+0  44444-3 0  9995
2 54039  97.2942 352.9705 0021559  23.8287 336.3960 15.55383196178360
GSLV R/B                
1 54149U 22138AN  25357.08888088  .00003089  00000+0  27020-3 0  9992
2 54149  87.3819 192.0077 0024126  71.8129 288.5726 14.96179269172473
XRISM                   
1 57800U 23137A   25356.87928878  .00006155  00000+0  35939-3 0  9992
2 57800  31.0029  60.0750 0007665 347.0098  13.0342 15.10432083126166
ACS3                    
1 59588U 24077B   25356.86267204  .00023893  00000+0  20306-1 0  9997
2 59588  97.2618 310.2070 0075316 313.4504  46.0408 13.85930789 83540
SZ-21 MODULE            
1 66515U 25246C   25356.25315771  .00029176  00000+0  31521-3 0  9993
2 66515  41.4776 317.9924 0005209 311.1717  48.8673 15.62957896  5937
